SL-16 R/B               
1 25400U 98043G   26062.48705854  .00000078  00000+0  51584-4 0  9993
2 25400  98.8244  15.8070 0010503  37.4371 322.7538 14.26048068438108
SL-16 R/B               
1 25407U 98045B   26062.49872950 -.00000221  00000+0 -87667-4 0  9998
2 25407  71.0112 194.5921 0006377  17.5744 342.5599 14.16189469426226
ISS (ZARYA)             
1 25544U 98067A   26062.44686659  .00009386  00000+0  18180-3 0  9990
2 25544  51.6317 103.2200 0008211 152.5429 207.5995 15.48418100555366
CZ-4B R/B               
1 25732U 99025C   26062.10313328  .00000074  00000+0  56463-4 0  9999
2 25732  98.6640 106.5404 0037120   5.6258  48.8396 14.18263792387237
OKEAN-O                 
1 25860U 99039A   26062.16298375  .00000795  00000+0  11112-3 0  9997
2 25860  97.9456 122.1204 0001453  71.2203 288.9166 14.80322800433427
SL-16 R/B               
1 25861U 99039B   26062.14899943  .00000711  00000+0  96997-4 0  9997
2 25861  97.9980 121.2550 0013453 279.5676  80.4016 14.81720640435891
DELTA 2 R/B             
1 25876U 99041E   26062.07041023  .00001695  00000+0  31034-3 0  9998
2 25876  51.7651 327.7179 0502356 328.8923  28.3138 14.11813362362092
HELIOS 1B               
1 25977U 99064A   26062.32419630  .00002479  00000+0  27880-3 0  9991
2 25977  98.1704 324.3803 0002509  83.6747 276.4754 14.87665755684316
TERRA                   
1 25994U 99068A   26062.41372865  .00000558  00000+0  12285-3 0  9991
2 25994  97.9607 116.0879 0002276 166.8432 250.4104 14.61006800394163
SL-16 R/B               
1 26070U 00006B   26062.44189857  .00000236  00000+0  14411-3 0  9997
2 26070  71.0014 110.9753 0017220 198.8260 161.2228 14.15824391347679
TITAN 4B R/B            
1 26474U 00047B   26062.46815287  .00005169  00000+0  32463-3 0  9992
2 26474  67.9883  58.0038 0037990  42.7873 317.6222 15.09488579391977
ENVISAT                 
1 27386U 02009A   26062.50324278  .00000168  00000+0  68346-4 0  9999
2 27386  98.3718  16.2483 0001336  84.6822  28.1006 14.39034205258284
